NORAD_CAT_ID,OBJECT_NAME,OBJECT_TYPE,EPOCH,MEAN_MOTION,ECCENTRICITY,INCLINATION,RA_OF_ASC_NODE,ARG_OF_PERICENTER,MEAN_ANOMALY,BSTAR,MEAN_MOTION_DOT,MEAN_MOTION_DDOT,TLE_LINE0,TLE_LINE1,TLE_LINE2,SEMIMAJOR_AXIS,PERIOD,APOGEE,PERIGEE,DECAYED
52116.0,STARLINK-3735,PAYLOAD,2023-04-23 10:45:03,15.08838788,0.0001238,53.2147,118.3256,98.4015,261.7117,0.00012495,1.701e-05,0.0,0 STARLINK-3735,1 52116U 22029AE  23113.44795181  .00001701  00000-0  12495-3 0  9992,2 52116  53.2147 118.3256 0001238  98.4015 261.7117 15.08838788 62083,6917.884,95.438,540.606,538.893,0.0
52116.0,STARLINK-3735,PAYLOAD,2023-04-24 12:11:12,15.08858308,0.0001466,53.2155,113.5664,105.1781,254.9373,0.00035659,5.395e-05,0.0,0 STARLINK-3735,1 52116U 22029AE  23114.50778067  .00005395  00000-0  35659-3 0  9994,2 52116  53.2155 113.5664 0001466 105.1781 254.9373 15.08858308 62247,6917.824,95.436,540.704,538.675,0.0
52116.0,STARLINK-3735,PAYLOAD,2023-04-25 12:01:59,15.08840281,0.0001411,53.2152,109.1059,107.5458,252.5688,2.1207e-05,5e-07,0.0,0 STARLINK-3735,1 52116U 22029AE  23115.50138622  .00000050  00000-0  21207-4 0  9990,2 52116  53.2152 109.1059 0001411 107.5458 252.5688 15.08840281 62390,6917.88,95.438,540.721,538.768,0.0
52116.0,STARLINK-3735,PAYLOAD,2023-04-26 07:06:38,15.08826382,0.0001363,53.2154,105.5381,102.665,257.4494,-0.0001705,-2.999e-05,0.0,0 STARLINK-3735,1 52116U 22029AE  23116.29627855 -.00002999  00000-0 -17050-3 0  9994,2 52116  53.2154 105.5381 0001363 102.6650 257.4494 15.08826382 62515,6917.922,95.438,540.73,538.844,0.0
52116.0,STARLINK-3735,PAYLOAD,2023-04-26 16:38:57,15.08829464,0.0001112,53.2163,103.7548,104.3658,255.7457,-5.0446e-05,-1.09e-05,0.0,0 STARLINK-3735,1 52116U 22029AE  23116.69372119 -.00001090  00000-0 -50446-4 0  9996,2 52116  53.2163 103.7548 0001112 104.3658 255.7457 15.08829464 62579,6917.913,95.438,540.547,539.008,0.0
52116.0,STARLINK-3735,PAYLOAD,2023-04-27 10:08:12,15.08842134,0.0001472,53.2157,100.4827,125.639,234.4739,0.00027131,4.033e-05,0.0,0 STARLINK-3735,1 52116U 22029AE  23117.42236131  .00004033  00000-0  27131-3 0  9993,2 52116  53.2157 100.4827 0001472 125.6390 234.4739 15.08842134 62682,6917.874,95.437,540.757,538.721,0.0
52116.0,STARLINK-3735,PAYLOAD,2023-04-28 09:58:58,15.08864843,0.0001304,53.2151,96.023,99.7711,260.3429,0.00065243,0.00010118,0.0,0 STARLINK-3735,1 52116U 22029AE  23118.41595493  .00010118  00000-0  65243-3 0  9999,2 52116  53.2151  96.0230 0001304  99.7711 260.3429 15.08864843 62838,6917.804,95.436,540.572,538.767,0.0
52116.0,STARLINK-3735,PAYLOAD,2023-04-29 05:03:36,15.08851405,0.0001198,53.2159,92.4555,97.1449,262.968,0.00014527,2.026e-05,0.0,0 STARLINK-3735,1 52116U 22029AE  23119.21083457  .00002026  00000-0  14527-3 0  9998,2 52116  53.2159  92.4555 0001198  97.1449 262.9680 15.08851405 62957,6917.846,95.437,540.539,538.882,0.0
52116.0,STARLINK-3735,PAYLOAD,2023-04-29 09:49:45,15.08854343,0.0001206,53.2155,91.5625,97.532,262.5809,0.00029693,4.443e-05,0.0,0 STARLINK-3735,1 52116U 22029AE  23119.40955291  .00004443  00000-0  29693-3 0  9998,2 52116  53.2155  91.5625 0001206  97.5320 262.5809 15.08854343 62989,6917.837,95.437,540.536,538.867,0.0
52116.0,STARLINK-3735,PAYLOAD,2023-04-30 09:40:32,15.08843205,0.0001397,53.2156,87.1012,108.1218,251.9926,4.0656e-05,3.59e-06,0.0,0 STARLINK-3735,1 52116U 22029AE  23120.40315482  .00000359  00000-0  40656-4 0  9997,2 52116  53.2156  87.1012 0001397 108.1218 251.9926 15.08843205 63132,6917.871,95.437,540.702,538.769,0.0
52116.0,STARLINK-3735,PAYLOAD,2023-05-01 03:09:47,15.08837005,0.0001342,53.2157,83.8293,107.6619,252.452,3.1024e-05,2.06e-06,0.0,0 STARLINK-3735,1 52116U 22029AE  23121.13179967  .00000206  00000-0  31024-4 0  9994,2 52116  53.2157  83.8293 0001342 107.6619 252.4520 15.08837005 63245,6917.89,95.438,540.683,538.826,0.0
52116.0,STARLINK-3735,PAYLOAD,2023-05-02 04:35:57,15.08845555,0.0001315,53.2161,79.0725,107.4703,252.6433,0.00018423,2.646e-05,0.0,0 STARLINK-3735,1 52116U 22029AE  23122.19163825  .00002646  00000-0  18423-3 0  9994,2 52116  53.2161  79.0725 0001315 107.4703 252.6433 15.08845555 63401,6917.863,95.437,540.638,538.819,0.0
52116.0,STARLINK-3735,PAYLOAD,2023-05-02 14:08:16,15.08846808,0.0001067,53.2156,77.2894,89.7734,270.338,0.00016615,2.358e-05,0.0,0 STARLINK-3735,1 52116U 22029AE  23122.58907761  .00002358  00000-0  16615-3 0  9993,2 52116  53.2156  77.2894 0001067  89.7734 270.3380 15.08846808 63468,6917.86,95.437,540.463,538.986,0.0
52116.0,STARLINK-3735,PAYLOAD,2023-05-03 04:26:44,15.08843011,0.0001175,53.2161,74.613,88.5686,271.5441,0.00012031,1.628e-05,0.0,0 STARLINK-3735,1 52116U 22029AE  23123.18523985  .00001628  00000-0  12031-3 0  9999,2 52116  53.2161  74.6130 0001175  88.5686 271.5441 15.08843011 63555,6917.871,95.437,540.549,538.923,0.0
52116.0,STARLINK-3735,PAYLOAD,2023-05-03 06:02:07,15.08843251,0.0001212,53.2159,74.3149,90.164,269.9491,0.00023204,3.407e-05,0.0,0 STARLINK-3735,1 52116U 22029AE  23123.25147981  .00003407  00000-0  23204-3 0  9996,2 52116  53.2159  74.3149 0001212  90.1640 269.9491 15.08843251 63563,6917.87,95.437,540.574,538.897,0.0
52116.0,STARLINK-3735,PAYLOAD,2023-05-04 02:42:09,15.08834766,0.0001256,53.2158,70.4477,95.8533,264.2603,-7.1729e-05,-1.429e-05,0.0,0 STARLINK-3735,1 52116U 22029AE  23124.11260504 -.00001429  00000-0 -71729-4 0  9999,2 52116  53.2158  70.4477 0001256  95.8533 264.2603 15.08834766 63692,6917.896,95.438,540.63,538.892,0.0
52116.0,STARLINK-3735,PAYLOAD,2023-05-04 05:52:55,15.08838907,0.0001313,53.2157,69.8521,98.3287,261.7854,7.6293e-06,-1.66e-06,0.0,0 STARLINK-3735,1 52116U 22029AE  23124.24508316 -.00000166  00000-0  76293-5 0  9997,2 52116  53.2157  69.8521 0001313  98.3287 261.7854 15.08838907 63715,6917.884,95.438,540.657,538.84,0.0
52116.0,STARLINK-3735,PAYLOAD,2023-05-05 02:32:55,15.08840784,9.84e-05,53.2175,65.9866,97.5647,262.5457,0.00019123,2.757e-05,0.0,0 STARLINK-3735,1 52116U 22029AE  23125.10620186  .00002757  00000-0  19123-3 0  9997,2 52116  53.2175  65.9866 0000984  97.5647 262.5457 15.08840784 63846,6917.878,95.438,540.424,539.062,0.0
52116.0,STARLINK-3735,PAYLOAD,2023-05-05 05:43:42,15.08847327,0.00013,53.2172,65.3931,90.6417,269.4724,0.00018674,2.686e-05,0.0,0 STARLINK-3735,1 52116U 22029AE  23125.23868148  .00002686  00000-0  18674-3 0  9994,2 52116  53.2172  65.3931 0001300  90.6417 269.4724 15.08847327 63867,6917.858,95.437,540.622,538.824,0.0
52116.0,STARLINK-3735,PAYLOAD,2023-05-06 05:34:29,15.08850442,0.0001207,53.2169,60.9327,94.7758,265.3372,0.00025081,3.707e-05,0.0,0 STARLINK-3735,1 52116U 22029AE  23126.23228069  .00003707  00000-0  25081-3 0  9992,2 52116  53.2169  60.9327 0001207  94.7758 265.3372 15.08850442 64016,6917.848,95.437,540.548,538.878,0.0
52116.0,STARLINK-3735,PAYLOAD,2023-05-07 02:14:29,15.08854892,0.0001081,53.2157,57.0697,88.6107,271.5009,0.00012243,1.662e-05,0.0,0 STARLINK-3735,1 52116U 22029AE  23127.09339637  .00001662  00000-0  12243-3 0  9995,2 52116  53.2157  57.0697 0001081  88.6107 271.5009 15.08854892 64143,6917.835,95.437,540.448,538.952,0.0
52116.0,STARLINK-3735,PAYLOAD,2023-05-07 21:19:08,15.08832949,0.0001136,53.2173,53.4999,85.6462,274.466,-0.00010334,-1.932e-05,0.0,0 STARLINK-3735,1 52116U 22029AE  23127.88828955 -.00001932  00000-0 -10334-3 0  9999,2 52116  53.2173  53.4999 0001136  85.6462 274.4660 15.08832949 64265,6917.902,95.438,540.553,538.981,0.0
52116.0,STARLINK-3735,PAYLOAD,2023-05-08 02:05:17,15.08832674,0.0001204,53.2168,52.6084,88.2905,271.8225,-9.7563e-05,-1.84e-05,0.0,0 STARLINK-3735,1 52116U 22029AE  23128.08701049 -.00001840  00000-0 -97563-4 0  9994,2 52116  53.2168  52.6084 0001204  88.2905 271.8225 15.08832674 64298,6917.903,95.438,540.601,538.935,0.0
52116.0,STARLINK-3735,PAYLOAD,2023-05-08 22:45:18,15.08846071,0.0001222,53.2169,48.7422,99.421,260.6921,0.0001176,1.585e-05,0.0,0 STARLINK-3735,1 52116U 22029AE  23128.94812690  .00001585  00000-0  11760-3 0  9992,2 52116  53.2169  48.7422 0001222  99.4210 260.6921 15.08846071 64424,6917.862,95.437,540.572,538.881,0.0
52116.0,STARLINK-3735,PAYLOAD,2023-05-09 01:56:04,15.0885032,0.0001278,53.2167,48.1478,102.6864,257.4271,0.00034632,5.23e-05,0.0,0 STARLINK-3735,1 52116U 22029AE  23129.08060689  .00005230  00000-0  34632-3 0  9995,2 52116  53.2167  48.1478 0001278 102.6864 257.4271 15.08850320 64446,6917.849,95.437,540.598,538.83,0.0
52116.0,STARLINK-3735,PAYLOAD,2023-05-10 01:46:51,15.0884799,0.0001234,53.2166,43.6877,100.2489,259.8642,0.00028409,4.237e-05,0.0,0 STARLINK-3735,1 52116U 22029AE  23130.07420902  .00004237  00000-0  28409-3 0  9995,2 52116  53.2166  43.6877 0001234 100.2489 259.8642 15.08847990 64590,6917.856,95.437,540.575,538.867,0.0
52116.0,STARLINK-3735,PAYLOAD,2023-05-11 01:37:38,15.0885037,0.0001254,53.2168,39.2267,89.145,270.9686,0.00016261,2.302e-05,0.0,0 STARLINK-3735,1 52116U 22029AE  23131.06780708  .00002302  00000-0  16261-3 0  9992,2 52116  53.2168  39.2267 0001254  89.1450 270.9686 15.08850370 64746,6917.849,95.437,540.581,538.846,0.0
52116.0,STARLINK-3735,PAYLOAD,2023-05-11 23:53:03,15.08837023,0.0001531,53.2168,35.0646,77.1939,282.9224,0.00011783,1.588e-05,0.0,0 STARLINK-3735,1 52116U 22029AE  23131.99517734  .00001588  00000-0  11783-3 0  9990,2 52116  53.2168  35.0646 0001531  77.1939 282.9224 15.08837023 64884,6917.889,95.438,540.814,538.695,0.0
52116.0,STARLINK-3735,PAYLOAD,2023-05-12 23:43:49,15.08856818,0.0001396,53.2179,30.6027,82.012,278.103,0.00042624,6.505e-05,0.0,0 STARLINK-3735,1 52116U 22029AE  23132.98877149  .00006505  00000-0  42624-3 0  9991,2 52116  53.2179  30.6027 0001396  82.0120 278.1030 15.08856818 65039,6917.829,95.436,540.66,538.728,0.0
52116.0,STARLINK-3735,PAYLOAD,2023-05-13 20:23:50,15.08844717,0.0001237,53.2177,26.741,85.2051,274.9082,-3.79e-05,-8.91e-06,0.0,0 STARLINK-3735,1 52116U 22029AE  23133.84989264 -.00000891  00000-0 -37900-4 0  9995,2 52116  53.2177  26.7410 0001237  85.2051 274.9082 15.08844717 65161,6917.866,95.437,540.587,538.875,0.0
